STARLINK-5356           
1 56418U 23061AW  26056.93325481  .00000154  00000+0  26479-4 0  9991
2 56418  43.0026 235.5587 0001112 261.6728  98.3988 15.02535681155285
STARLINK-5350           
1 56419U 23061AX  26057.22654105  .00000066  00000+0  19949-4 0  9999
2 56419  43.0018 246.4676 0001233 268.0408  92.0293 15.02531537155182
STARLINK-6272           
1 56420U 23061AY  26056.86344629  .00000264  00000+0  34587-4 0  9992
2 56420  43.0021 235.8931 0001206 263.7350  96.3355 15.02534880155272
STARLINK-6270           
1 56421U 23061AZ  26056.88342422 -.00000227  00000+0 -17351-5 0  9996
2 56421  43.0028 236.0425 0001061 261.2370  98.8352 15.02540935155277
STARLINK-6236           
1 56422U 23061BA  26056.85679971  .00003085  00000+0  24335-3 0  9997
2 56422  43.0033 235.8470 0001433 267.9389  92.1289 15.02531176155270
STARLINK-6239           
1 56423U 23061BB  26056.86011718  .00000210  00000+0  30582-4 0  9997
2 56423  43.0035 235.8693 0000955 260.0130 100.0605 15.02535757155276
STARLINK-6242           
1 56424U 23061BC  26056.91660266  .00000538  00000+0  54892-4 0  9995
2 56424  43.0026 235.4317 0001192 265.6899  94.3808 15.02536544155289
STARLINK-6224           
1 56425U 23061BD  26056.91994056  .00000422  00000+0  46281-4 0  9998
2 56425  43.0018 235.4577 0001230 264.1298  95.9404 15.02546366155281
STARLINK-5352           
1 56426U 23061BE  26056.89672650  .00003547  00000+0  27728-3 0  9994
2 56426  43.0016 236.1300 0001437 266.4434  93.6244 15.02570082155276
STARLINK-5724           
1 56427U 23061BF  26056.88677663 -.00001322  00000+0 -82820-4 0  9999
2 56427  43.0038 236.0585 0001386 265.0929  94.9756 15.02518438155271
STARLINK-6238           
1 56428U 23061BG  26056.84346746  .00000053  00000+0  19009-4 0  9998
2 56428  43.0025 235.7437 0001132 267.3901  92.6812 15.02536198155275
STARLINK-6264           
1 56429U 23061BH  26056.84013635  .00000418  00000+0  46036-4 0  9992
2 56429  43.0030 235.7182 0001562 264.2599  95.8065 15.02536945155270
STARLINK-5990           
1 56448U 23064A   26056.60171496 -.00000762  00000+0 -56105-4 0  9992
2 56448  70.0018 175.0074 0002588 266.3989  93.6874 14.98326071153439
STARLINK-5993           
1 56449U 23064B   26057.29001777  .00000663  00000+0  63388-4 0  9992
2 56449  70.0010 173.3961 0002979 265.6686  94.4133 14.98331398153534
STARLINK-5970           
1 56450U 23064C   26057.06457312  .00031062  00000+0  25824-2 0  9997
2 56450  70.0004 173.8102 0003776 278.7918  81.2813 14.98584086153500
STARLINK-5985           
1 56451U 23064D   26057.28584433  .00000865  00000+0  80296-4 0  9990
2 56451  70.0006 173.3805 0003529 270.9210  89.1545 14.98331380153532
