[{"OBJECT_NAME":"STARLINK-5356","OBJECT_ID":"2023-061AW","EPOCH":"2026-02-25T22:23:53.215584","MEAN_MOTION":15.02535681,"ECCENTRICITY":0.00011127,"INCLINATION":43.0026,"RA_OF_ASC_NODE":235.5587,"ARG_OF_PERICENTER":261.6728,"MEAN_ANOMALY":98.3988,"EPHEMERIS_TYPE":0,"CLASSIFICATION_TYPE":"U","NORAD_CAT_ID":56418,"ELEMENT_SET_NO":999,"REV_AT_EPOCH":15528,"BSTAR":2.6478623e-5,"MEAN_MOTION_DOT":1.54e-6,"MEAN_MOTION_DDOT":0},{"OBJECT_NAME":"STARLINK-5350","OBJECT_ID":"2023-061AX","EPOCH":"2026-02-26T05:26:13.146720","MEAN_MOTION":15.02531537,"ECCENTRICITY":0.00012336,"INCLINATION":43.0018,"RA_OF_ASC_NODE":246.4676,"ARG_OF_PERICENTER":268.0408,"MEAN_ANOMALY":92.0293,"EPHEMERIS_TYPE":0,"CLASSIFICATION_TYPE":"U","NORAD_CAT_ID":56419,"ELEMENT_SET_NO":999,"REV_AT_EPOCH":15518,"BSTAR":1.9949385e-5,"MEAN_MOTION_DOT":6.6e-7,"MEAN_MOTION_DDOT":0},{"OBJECT_NAME":"STARLINK-6272","OBJECT_ID":"2023-061AY","EPOCH":"2026-02-25T20:43:21.759456","MEAN_MOTION":15.0253488,"ECCENTRICITY":0.00012069,"INCLINATION":43.0021,"RA_OF_ASC_NODE":235.8931,"ARG_OF_PERICENTER":263.735,"MEAN_ANOMALY":96.3355,"EPHEMERIS_TYPE":0,"CLASSIFICATION_TYPE":"U","NORAD_CAT_ID":56420,"ELEMENT_SET_NO":999,"REV_AT_EPOCH":15527,"BSTAR":3.4586532e-5,"MEAN_MOTION_DOT":2.64e-6,"MEAN_MOTION_DDOT":0},{"OBJECT_NAME":"STARLINK-6270","OBJECT_ID":"2023-061AZ","EPOCH":"2026-02-25T21:12:07.852608","MEAN_MOTION":15.02540935,"ECCENTRICITY":0.00010614,"INCLINATION":43.0028,"RA_OF_ASC_NODE":236.0425,"ARG_OF_PERICENTER":261.237,"MEAN_ANOMALY":98.8352,"EPHEMERIS_TYPE":0,"CLASSIFICATION_TYPE":"U","NORAD_CAT_ID":56421,"ELEMENT_SET_NO":999,"REV_AT_EPOCH":15527,"BSTAR":-1.735144e-6,"MEAN_MOTION_DOT":-2.27e-6,"MEAN_MOTION_DDOT":0},{"OBJECT_NAME":"STARLINK-6236","OBJECT_ID":"2023-061BA","EPOCH":"2026-02-25T20:33:47.494944","MEAN_MOTION":15.02531176,"ECCENTRICITY":0.00014334,"INCLINATION":43.0033,"RA_OF_ASC_NODE":235.847,"ARG_OF_PERICENTER":267.9389,"MEAN_ANOMALY":92.1289,"EPHEMERIS_TYPE":0,"CLASSIFICATION_TYPE":"U","NORAD_CAT_ID":56422,"ELEMENT_SET_NO":999,"REV_AT_EPOCH":15527,"BSTAR":0.00024335433,"MEAN_MOTION_DOT":3.085e-5,"MEAN_MOTION_DDOT":0},{"OBJECT_NAME":"STARLINK-6239","OBJECT_ID":"2023-061BB","EPOCH":"2026-02-25T20:38:34.124352","MEAN_MOTION":15.02535757,"ECCENTRICITY":9.551e-5,"INCLINATION":43.0035,"RA_OF_ASC_NODE":235.8693,"ARG_OF_PERICENTER":260.013,"MEAN_ANOMALY":100.0605,"EPHEMERIS_TYPE":0,"CLASSIFICATION_TYPE":"U","NORAD_CAT_ID":56423,"ELEMENT_SET_NO":999,"REV_AT_EPOCH":15527,"BSTAR":3.058237e-5,"MEAN_MOTION_DOT":2.1e-6,"MEAN_MOTION_DDOT":0},{"OBJECT_NAME":"STARLINK-6242","OBJECT_ID":"2023-061BC","EPOCH":"2026-02-25T21:59:54.469824","MEAN_MOTION":15.02536544,"ECCENTRICITY":0.00011925,"INCLINATION":43.0026,"RA_OF_ASC_NODE":235.4317,"ARG_OF_PERICENTER":265.6899,"MEAN_ANOMALY":94.3808,"EPHEMERIS_TYPE":0,"CLASSIFICATION_TYPE":"U","NORAD_CAT_ID":56424,"ELEMENT_SET_NO":999,"REV_AT_EPOCH":15528,"BSTAR":5.4892361e-5,"MEAN_MOTION_DOT":5.38e-6,"MEAN_MOTION_DDOT":0},{"OBJECT_NAME":"STARLINK-6224","OBJECT_ID":"2023-061BD","EPOCH":"2026-02-25T22:04:42.864384","MEAN_MOTION":15.02546366,"ECCENTRICITY":0.00012305,"INCLINATION":43.0018,"RA_OF_ASC_NODE":235.4577,"ARG_OF_PERICENTER":264.1298,"MEAN_ANOMALY":95.9404,"EPHEMERIS_TYPE":0,"CLASSIFICATION_TYPE":"U","NORAD_CAT_ID":56425,"ELEMENT_SET_NO":999,"REV_AT_EPOCH":15528,"BSTAR":4.6281216e-5,"MEAN_MOTION_DOT":4.22e-6,"MEAN_MOTION_DDOT":0},{"OBJECT_NAME":"STARLINK-5352","OBJECT_ID":"2023-061BE","EPOCH":"2026-02-25T21:31:17.169600","MEAN_MOTION":15.02570082,"ECCENTRICITY":0.00014376,"INCLINATION":43.0016,"RA_OF_ASC_NODE":236.13,"ARG_OF_PERICENTER":266.4434,"MEAN_ANOMALY":93.6244,"EPHEMERIS_TYPE":0,"CLASSIFICATION_TYPE":"U","NORAD_CAT_ID":56426,"ELEMENT_SET_NO":999,"REV_AT_EPOCH":15527,"BSTAR":0.00027728484,"MEAN_MOTION_DOT":3.547e-5,"MEAN_MOTION_DDOT":0},{"OBJECT_NAME":"STARLINK-5724","OBJECT_ID":"2023-061BF","EPOCH":"2026-02-25T21:16:57.500832","MEAN_MOTION":15.02518438,"ECCENTRICITY":0.00013863,"INCLINATION":43.0038,"RA_OF_ASC_NODE":236.0585,"ARG_OF_PERICENTER":265.0929,"MEAN_ANOMALY":94.9756,"EPHEMERIS_TYPE":0,"CLASSIFICATION_TYPE":"U","NORAD_CAT_ID":56427,"ELEMENT_SET_NO":999,"REV_AT_EPOCH":15527,"BSTAR":-8.2819652e-5,"MEAN_MOTION_DOT":-1.322e-5,"MEAN_MOTION_DDOT":0},{"OBJECT_NAME":"STARLINK-6238","OBJECT_ID":"2023-061BG","EPOCH":"2026-02-25T20:14:35.588544","MEAN_MOTION":15.02536198,"ECCENTRICITY":0.00011327,"INCLINATION":43.0025,"RA_OF_ASC_NODE":235.7437,"ARG_OF_PERICENTER":267.3901,"MEAN_ANOMALY":92.6812,"EPHEMERIS_TYPE":0,"CLASSIFICATION_TYPE":"U","NORAD_CAT_ID":56428,"ELEMENT_SET_NO":999,"REV_AT_EPOCH":15527,"BSTAR":1.9008964e-5,"MEAN_MOTION_DOT":5.3e-7,"MEAN_MOTION_DDOT":0},{"OBJECT_NAME":"STARLINK-6264","OBJECT_ID":"2023-061BH","EPOCH":"2026-02-25T20:09:47.780640","MEAN_MOTION":15.02536945,"ECCENTRICITY":0.00015628,"INCLINATION":43.003,"RA_OF_ASC_NODE":235.7182,"ARG_OF_PERICENTER":264.2599,"MEAN_ANOMALY":95.8065,"EPHEMERIS_TYPE":0,"CLASSIFICATION_TYPE":"U","NORAD_CAT_ID":56429,"ELEMENT_SET_NO":999,"REV_AT_EPOCH":15527,"BSTAR":4.6036248e-5,"MEAN_MOTION_DOT":4.18e-6,"MEAN_MOTION_DDOT":0},{"OBJECT_NAME":"STARLINK-5990","OBJECT_ID":"2023-064A","EPOCH":"2026-02-25T14:26:28.172544","MEAN_MOTION":14.98326071,"ECCENTRICITY":0.00025889,"INCLINATION":70.0018,"RA_OF_ASC_NODE":175.0074,"ARG_OF_PERICENTER":266.3989,"MEAN_ANOMALY":93.6874,"EPHEMERIS_TYPE":0,"CLASSIFICATION_TYPE":"U","NORAD_CAT_ID":56448,"ELEMENT_SET_NO":999,"REV_AT_EPOCH":15343,"BSTAR":-5.6104979e-5,"MEAN_MOTION_DOT":-7.62e-6,"MEAN_MOTION_DDOT":0},{"OBJECT_NAME":"STARLINK-5993","OBJECT_ID":"2023-064B","EPOCH":"2026-02-26T06:57:37.535328","MEAN_MOTION":14.98331398,"ECCENTRICITY":0.00029791,"INCLINATION":70.001,"RA_OF_ASC_NODE":173.3961,"ARG_OF_PERICENTER":265.6686,"MEAN_ANOMALY":94.4133,"EPHEMERIS_TYPE":0,"CLASSIFICATION_TYPE":"U","NORAD_CAT_ID":56449,"ELEMENT_SET_NO":999,"REV_AT_EPOCH":15353,"BSTAR":6.3388094e-5,"MEAN_MOTION_DOT":6.63e-6,"MEAN_MOTION_DDOT":0},{"OBJECT_NAME":"STARLINK-5970","OBJECT_ID":"2023-064C","EPOCH":"2026-02-26T01:32:59.117568","MEAN_MOTION":14.98584086,"ECCENTRICITY":0.0003776,"INCLINATION":70.0004,"RA_OF_ASC_NODE":173.8102,"ARG_OF_PERICENTER":278.7918,"MEAN_ANOMALY":81.2813,"EPHEMERIS_TYPE":0,"CLASSIFICATION_TYPE":"U","NORAD_CAT_ID":56450,"ELEMENT_SET_NO":999,"REV_AT_EPOCH":15350,"BSTAR":0.0025823819,"MEAN_MOTION_DOT":0.00031062,"MEAN_MOTION_DDOT":0},{"OBJECT_NAME":"STARLINK-5985","OBJECT_ID":"2023-064D","EPOCH":"2026-02-26T06:51:36.950112","MEAN_MOTION":14.9833138,"ECCENTRICITY":0.00035299,"INCLINATION":70.0006,"RA_OF_ASC_NODE":173.3805,"ARG_OF_PERICENTER":270.921,"MEAN_ANOMALY":89.1545,"EPHEMERIS_TYPE":0,"CLASSIFICATION_TYPE":"U","NORAD_CAT_ID":56451,"ELEMENT_SET_NO":999,"REV_AT_EPOCH":15353,"BSTAR":8.0295827e-5,"MEAN_MOTION_DOT":8.65e-6,"MEAN_MOTION_DDOT":0}]
